QIANFAN-41              
1 62242U 24232F   25251.21875036  .00000044  00000+0  50005-4 0  9997
2 62242  88.9956  50.8312 0015889 105.9546 254.3358 13.50969190 86358
QIANFAN-42              
1 62243U 24232G   25251.23382262  .00000162  00000+0  63745-4 0  9990
2 62243  88.9957  48.2584 0016395  43.7282 316.5206 14.24345831 87773
QIANFAN-43              
1 62244U 24232H   25251.21464835  .00000039  00000+0  41026-4 0  9997
2 62244  88.9961  50.8927 0017359 110.7956 249.5056 13.50966502 54968
QIANFAN-44              
1 62245U 24232J   25251.20230392  .00000024  00000+0  18958-4 0  9998
2 62245  88.9960  50.7061 0015593 107.9892 252.2960 13.50965184 86438
QIANFAN-45              
1 62246U 24232K   25251.24344812  .00000028  00000+0  25278-4 0  9993
2 62246  88.9963  50.8452 0016244 107.6484 252.6442 13.50968668 86366
QIANFAN-46              
1 62247U 24232L   25251.19405782  .00000021  00000+0  13264-4 0  9997
2 62247  88.9959  50.9231 0016274 112.6475 247.6400 13.50969386 86318
QIANFAN-47              
1 62248U 24232M   25251.19815556  .00000026  00000+0  22115-4 0  9992
2 62248  88.9955  50.8595 0016703 111.9234 248.3694 13.50962839 86341
QIANFAN-48              
1 62249U 24232N   25251.23521510  .00000035  00000+0  34694-4 0  9997
2 62249  88.9959  50.8538 0018930 114.4557 245.8572 13.50966293 86359
